ONEWEB-0415             
1 51624U 22012C   25028.28662256  .00000612  00000+0  17164-2 0  9998
2 51624  87.8916 136.8809 0002041 103.3300 256.8055 13.10373900144446
ONEWEB-0416             
1 51625U 22012D   25028.75638025  .00000370  00000+0  10237-2 0  9993
2 51625  87.8934 136.7975 0001710 105.8135 254.3181 13.10370555143260
ONEWEB-0422             
1 51626U 22012E   25028.47968363  .00000025  00000+0  31679-4 0  9996
2 51626  87.9080 106.4053 0002044 126.9183 233.2136 13.17648716148628
ONEWEB-0423             
1 51627U 22012F   25028.62480712  .00000051  00000+0  98972-4 0  9999
2 51627  87.9082 106.3806 0001770 106.2367 253.8960 13.17648385147259
ONEWEB-0425             
1 51628U 22012G   25028.68997124 -.00000181  00000+0 -55464-3 0  9990
2 51628  87.8915 136.7851 0001323  99.1142 261.0135 13.10369116143252
ONEWEB-0428             
1 51629U 22012H   25028.74642668  .00000696  00000+0  19568-2 0  9991
2 51629  87.8925 136.7930 0001937 113.8853 246.2478 13.10372589143226
ONEWEB-0431             
1 51630U 22012J   25028.25824443 -.00000334  00000+0 -99215-3 0  9991
2 51630  87.8914 136.8718 0002288 114.2394 245.8972 13.10376662144508
ONEWEB-0434             
1 51631U 22012K   25028.23514612 -.00000311  00000+0 -92752-3 0  9998
2 51631  87.8918 136.9065 0001078  92.1364 267.9887 13.10370462143192
